NORAD_CAT_ID,OBJECT_NAME,OBJECT_TYPE,EPOCH,MEAN_MOTION,ECCENTRICITY,INCLINATION,RA_OF_ASC_NODE,ARG_OF_PERICENTER,MEAN_ANOMALY,BSTAR,MEAN_MOTION_DOT,MEAN_MOTION_DDOT,TLE_LINE0,TLE_LINE1,TLE_LINE2,SEMIMAJOR_AXIS,PERIOD,APOGEE,PERIGEE,DECAYED
51792.0,STARLINK-3626,PAYLOAD,2024-05-14 13:52:15,15.0883944,0.0001335,53.2163,90.4325,104.4636,255.6504,0.00086855,0.00013562,0.0,0 STARLINK-3626,1 51792U 22017AA  24135.57795745  .00013562  00000-0  86855-3 0  9992,2 51792  53.2163  90.4325 0001335 104.4636 255.6504 15.08839440123718,6917.882,95.438,540.671,538.824,0.0
51792.0,STARLINK-3626,PAYLOAD,2024-05-15 05:46:05,15.08873718,0.000138,53.2162,87.4591,110.9006,249.2134,0.00054161,8.35e-05,0.0,0 STARLINK-3626,1 51792U 22017AA  24136.24033646  .00008350  00000-0  54161-3 0  9996,2 51792  53.2162  87.4591 0001380 110.9006 249.2134 15.08873718123816,6917.777,95.435,540.597,538.688,0.0
51792.0,STARLINK-3626,PAYLOAD,2024-05-16 04:01:26,15.08908087,0.000124,53.2165,83.2958,124.9913,235.1195,0.00095796,0.00015019,0.0,0 STARLINK-3626,1 51792U 22017AA  24137.16766678  .00015019  00000-0  95796-3 0  9995,2 51792  53.2165  83.2958 0001240 124.9913 235.1195 15.08908087123951,6917.672,95.433,540.395,538.679,0.0
51792.0,STARLINK-3626,PAYLOAD,2024-05-16 13:33:43,15.08927905,0.0001245,53.2164,81.5097,76.0626,284.0505,0.0013323,0.0002103,0.0,0 STARLINK-3626,1 51792U 22017AA  24137.56508843  .00021030  00000-0  13323-2 0  9992,2 51792  53.2164  81.5097 0001245  76.0626 284.0505 15.08927905124014,6917.612,95.432,540.338,538.615,0.0
51792.0,STARLINK-3626,PAYLOAD,2024-05-16 19:55:17,15.08865226,0.0001519,53.2161,80.3224,95.9277,264.1888,-0.00026173,-4.454e-05,0.0,0 STARLINK-3626,1 51792U 22017AA  24137.83005814 -.00004454  00000-0 -26173-3 0  9993,2 51792  53.2161  80.3224 0001519  95.9277 264.1888 15.08865226124050,6917.803,95.436,540.719,538.617,0.0
51792.0,STARLINK-3626,PAYLOAD,2024-05-17 02:16:50,15.08831919,0.0001509,53.2175,79.1333,85.4285,274.688,-0.00072327,-0.00011778,0.0,0 STARLINK-3626,1 51792U 22017AA  24138.09503326 -.00011778  00000-0 -72327-3 0  9992,2 51792  53.2175  79.1333 0001509  85.4285 274.6880 15.08831919124098,6917.905,95.438,540.814,538.726,0.0
51792.0,STARLINK-3626,PAYLOAD,2024-05-17 13:24:33,15.08832299,0.00015,53.218,77.0517,88.0283,272.0881,-0.00042294,-7.011e-05,0.0,0 STARLINK-3626,1 51792U 22017AA  24138.55871858 -.00007011  00000-0 -42294-3 0  9996,2 51792  53.2180  77.0517 0001500  88.0283 272.0881 15.08832299124166,6917.904,95.438,540.807,538.731,0.0
51792.0,STARLINK-3626,PAYLOAD,2024-05-18 05:18:24,15.08845678,0.0001495,53.2163,74.0756,82.2899,277.8262,4.6882e-05,4.58e-06,0.0,0 STARLINK-3626,1 51792U 22017AA  24139.22111604  .00000458  00000-0  46882-4 0  9991,2 51792  53.2163  74.0756 0001495  82.2899 277.8262 15.08845678124263,6917.863,95.437,540.762,538.694,0.0
51792.0,STARLINK-3626,PAYLOAD,2024-05-18 13:15:19,15.0884719,0.0001355,53.2168,72.5875,96.0537,264.061,9.4235e-05,1.212e-05,0.0,0 STARLINK-3626,1 51792U 22017AA  24139.55231452  .00001212  00000-0  94235-4 0  9995,2 51792  53.2168  72.5875 0001355  96.0537 264.0610 15.08847190124312,6917.858,95.437,540.661,538.786,0.0
51792.0,STARLINK-3626,PAYLOAD,2024-05-18 22:47:40,15.08815512,0.0001403,53.2167,70.8035,92.5418,267.5735,8.6229e-05,1.084e-05,0.0,0 STARLINK-3626,1 51792U 22017AA  24139.94977350  .00001084  00000-0  86229-4 0  9993,2 51792  53.2167  70.8035 0001403  92.5418 267.5735 15.08815512124378,6917.955,95.439,540.791,538.85,0.0
51792.0,STARLINK-3626,PAYLOAD,2024-05-19 01:58:26,15.08820188,0.0001619,53.2166,70.2094,87.3223,272.7954,0.00015462,2.172e-05,0.0,0 STARLINK-3626,1 51792U 22017AA  24140.08225452  .00002172  00000-0  15462-3 0  9998,2 51792  53.2166  70.2094 0001619  87.3223 272.7954 15.08820188124399,6917.941,95.439,540.926,538.686,0.0
51792.0,STARLINK-3626,PAYLOAD,2024-05-19 19:27:41,15.08834105,0.0001475,53.2172,66.9385,87.9699,272.1462,0.0003383,5.099e-05,0.0,0 STARLINK-3626,1 51792U 22017AA  24140.81089637  .00005099  00000-0  33830-3 0  9992,2 51792  53.2172  66.9385 0001475  87.9699 272.1462 15.08834105124509,6917.898,95.438,540.784,538.743,0.0
51792.0,STARLINK-3626,PAYLOAD,2024-05-20 01:49:14,15.08834724,0.0001389,53.2158,65.7467,81.4209,278.6941,0.00025906,3.837e-05,0.0,0 STARLINK-3626,1 51792U 22017AA  24141.07585845  .00003837  00000-0  25906-3 0  9996,2 51792  53.2158  65.7467 0001389  81.4209 278.6941 15.08834724124545,6917.897,95.438,540.722,538.801,0.0
51792.0,STARLINK-3626,PAYLOAD,2024-05-21 00:04:38,15.0883161,0.0001412,53.2159,61.5838,88.0088,272.1066,0.00013738,1.899e-05,0.0,0 STARLINK-3626,1 51792U 22017AA  24142.00322351  .00001899  00000-0  13738-3 0  9997,2 51792  53.2159  61.5838 0001412  88.0088 272.1066 15.08831610124680,6917.906,95.438,540.748,538.794,0.0
51792.0,STARLINK-3626,PAYLOAD,2024-05-21 22:20:02,15.08836139,0.0001471,53.216,57.4156,98.2833,261.8326,9.9659e-05,1.298e-05,0.0,0 STARLINK-3626,1 51792U 22017AA  24142.93058291  .00001298  00000-0  99659-4 0  9998,2 51792  53.2160  57.4156 0001471  98.2833 261.8326 15.08836139124826,6917.892,95.438,540.775,538.74,0.0
51792.0,STARLINK-3626,PAYLOAD,2024-05-22 01:30:48,15.08837196,0.0001524,53.217,56.8238,98.6778,261.4387,0.00011519,1.546e-05,0.0,0 STARLINK-3626,1 51792U 22017AA  24143.06306294  .00001546  00000-0  11519-3 0  9996,2 51792  53.2170  56.8238 0001524  98.6778 261.4387 15.08837196124841,6917.889,95.438,540.808,538.7,0.0
51792.0,STARLINK-3626,PAYLOAD,2024-05-23 02:56:58,15.088527,0.0001552,53.2173,52.0709,101.2476,258.869,0.00037503,5.688e-05,0.0,0 STARLINK-3626,1 51792U 22017AA  24144.12289774  .00005688  00000-0  37503-3 0  9999,2 51792  53.2173  52.0709 0001552 101.2476 258.8690 15.08852700125006,6917.842,95.437,540.78,538.633,0.0
51792.0,STARLINK-3626,PAYLOAD,2024-05-24 02:47:45,15.08843366,0.0001471,53.2174,47.6084,100.0134,260.1024,3.2267e-05,2.26e-06,0.0,0 STARLINK-3626,1 51792U 22017AA  24145.11649737  .00000226  00000-0  32267-4 0  9994,2 51792  53.2174  47.6084 0001471 100.0134 260.1024 15.08843366125152,6917.87,95.437,540.753,538.717,0.0
51792.0,STARLINK-3626,PAYLOAD,2024-05-24 21:52:23,15.08833829,0.0001398,53.2179,44.0353,103.8842,256.2306,-0.00012113,-2.215e-05,0.0,0 STARLINK-3626,1 51792U 22017AA  24145.91138182 -.00002215  00000-0 -12113-3 0  9998,2 51792  53.2179  44.0353 0001398 103.8842 256.2306 15.08833829125277,6917.899,95.438,540.731,538.797,0.0
51792.0,STARLINK-3626,PAYLOAD,2024-05-25 10:35:28,15.08842917,0.0001023,53.2171,41.6679,112.0974,248.0127,6.6567e-05,7.72e-06,0.0,0 STARLINK-3626,1 51792U 22017AA  24146.44130000  .00000772  00000-0  66567-4 0  9995,2 51792  53.2171  41.6679 0001023 112.0974 248.0127 15.08842917125353,6917.871,95.437,540.444,539.029,0.0
51792.0,STARLINK-3626,PAYLOAD,2024-05-25 23:18:34,15.08830658,0.0001009,53.2163,39.2886,107.4329,252.6773,-3.0735e-05,-7.77e-06,0.0,0 STARLINK-3626,1 51792U 22017AA  24146.97123154 -.00000777  00000-0 -30735-4 0  9990,2 51792  53.2163  39.2886 0001009 107.4329 252.6773 15.08830658125439,6917.909,95.438,540.472,539.076,0.0
51792.0,STARLINK-3626,PAYLOAD,2024-05-26 21:33:57,15.08841041,0.000126,53.2187,35.1241,104.6026,255.5106,9.0856e-05,1.158e-05,0.0,0 STARLINK-3626,1 51792U 22017AA  24147.89858655  .00001158  00000-0  90856-4 0  9995,2 51792  53.2187  35.1241 0001260 104.6026 255.5106 15.08841041125572,6917.877,95.437,540.614,538.871,0.0
51792.0,STARLINK-3626,PAYLOAD,2024-05-26 23:09:32,15.08672836,3.5e-05,53.2188,34.8394,40.8454,319.2565,-0.0012372,-0.00019833,0.0,0 STARLINK-3626,1 51792U 22017AA  24147.96496020 -.00019833  00000-0 -12372-2 0  9993,2 51792  53.2188  34.8394 0000350  40.8454 319.2565 15.08672836125585,6918.391,95.448,540.499,540.014,0.0
51792.0,STARLINK-3626,PAYLOAD,2024-05-27 02:20:07,15.08842802,0.0001273,53.2184,34.2304,107.1076,253.0055,0.00011332,1.516e-05,0.0,0 STARLINK-3626,1 51792U 22017AA  24148.09730395  .00001516  00000-0  11332-3 0  9997,2 51792  53.2184  34.2304 0001273 107.1076 253.0055 15.08842802125602,6917.872,95.437,540.617,538.856,0.0
51792.0,STARLINK-3626,PAYLOAD,2024-05-27 21:24:45,15.08837566,0.0001359,53.2187,30.6614,116.6502,243.463,4.7017e-05,4.6e-06,0.0,0 STARLINK-3626,1 51792U 22017AA  24148.89218779  .00000460  00000-0  47017-4 0  9999,2 51792  53.2187  30.6614 0001359 116.6502 243.4630 15.08837566125729,6917.888,95.438,540.693,538.813,0.0
51792.0,STARLINK-3626,PAYLOAD,2024-05-28 02:10:54,15.0883675,0.0001287,53.2184,29.7698,113.1168,246.996,3.3527e-05,2.46e-06,0.0,0 STARLINK-3626,1 51792U 22017AA  24149.09090890  .00000246  00000-0  33527-4 0  9997,2 51792  53.2184  29.7698 0001287 113.1168 246.9960 15.08836750125758,6917.89,95.438,540.646,538.865,0.0
51792.0,STARLINK-3626,PAYLOAD,2024-05-28 21:15:32,15.08840129,0.0001199,53.2181,26.2014,108.5874,251.5248,9.5874e-06,-1.35e-06,0.0,0 STARLINK-3626,1 51792U 22017AA  24149.88578768 -.00000135  00000-0  95874-5 0  9991,2 51792  53.2181  26.2014 0001199 108.5874 251.5248 15.08840129125872,6917.88,95.438,540.574,538.916,0.0
51792.0,STARLINK-3626,PAYLOAD,2024-05-29 02:01:41,15.08839536,0.0001154,53.2181,25.3095,104.5757,255.5363,1.5077e-06,-2.64e-06,0.0,0 STARLINK-3626,1 51792U 22017AA  24150.08450824 -.00000264  00000-0  15077-5 0  9997,2 51792  53.2181  25.3095 0001154 104.5757 255.5363 15.08839536125904,6917.882,95.438,540.545,538.948,0.0
51792.0,STARLINK-3626,PAYLOAD,2024-05-29 21:06:19,15.08833486,0.0001122,53.2179,21.7411,93.0654,267.0467,4.563e-05,4.38e-06,0.0,0 STARLINK-3626,1 51792U 22017AA  24150.87939329  .00000438  00000-0  45630-4 0  9995,2 51792  53.2179  21.7411 0001122  93.0654 267.0467 15.08833486126021,6917.9,95.438,540.541,538.989,0.0
51792.0,STARLINK-3626,PAYLOAD,2024-05-30 20:57:06,15.0884159,0.0001166,53.2175,17.2796,88.2292,271.8833,0.00010222,1.339e-05,0.0,0 STARLINK-3626,1 51792U 22017AA  24151.87298822  .00001339  00000-0  10222-3 0  9991,2 51792  53.2175  17.2796 0001166  88.2292 271.8833 15.08841590126176,6917.876,95.437,540.547,538.934,0.0
